{
  "type": "FeatureCollection",
  "features": [
    {
      "type": "Feature",
      "properties": {
        "norad_id": 66052,
        "name": "HRC MONOBLOCK CAMERA",
        "group": "stations",
        "lat": 11.203939813793744,
        "lon": -13.254030488881737,
        "alt_km": 402.90924627336335,
        "timestamp": "2025-12-05T20:43:00.875989+00:00",
        "meta_object_name": "HRC MONOBLOCK CAMERA",
        "meta_object_id": "1998-067XR",
        "meta_epoch": "2025-12-05T06:06:43.576992",
        "meta_mean_motion": 15.53416514,
        "meta_eccentricity": 0.00042499,
        "meta_inclination": 51.6284,
        "meta_ra_of_asc_node": 178.8082,
        "meta_arg_of_pericenter": 154.3849,
        "meta_mean_anomaly": 205.7352,
        "meta_ephemeris_type": 0,
        "meta_classification_type": "U",
        "meta_norad_cat_id": 66052,
        "meta_element_set_no": 999,
        "meta_rev_at_epoch": 767,
        "meta_bstar": 0.00075336119,
        "meta_mean_motion_dot": 0.00048428,
        "meta_mean_motion_ddot": 0,
        "tle_line1": "1 66052U 98067XR  25339.25467103  .00048428  00000+0  75336-3 0  9991",
        "tle_line2": "2 66052  51.6284 178.8082 0004249 154.3849 205.7352 15.53416514  7673"
      },
      "geometry": {
        "type": "Point",
        "coordinates": [
          -13.254030488881737,
          11.203939813793744
        ]
      }
    },
    {
      "type": "Feature",
      "properties": {
        "norad_id": 66174,
        "name": "HTV-X1",
        "group": "stations",
        "lat": 10.671938002915981,
        "lon": -12.06290861011414,
        "alt_km": 416.07874485140746,
        "timestamp": "2025-12-05T20:43:00.875999+00:00",
        "meta_object_name": "HTV-X1",
        "meta_object_id": "2025-241A",
        "meta_epoch": "2025-12-05T06:04:12.236160",
        "meta_mean_motion": 15.49328184,
        "meta_eccentricity": 0.00035858,
        "meta_inclination": 51.6297,
        "meta_ra_of_asc_node": 179.5463,
        "meta_arg_of_pericenter": 206.2517,
        "meta_mean_anomaly": 153.8291,
        "meta_ephemeris_type": 0,
        "meta_classification_type": "U",
        "meta_norad_cat_id": 66174,
        "meta_element_set_no": 999,
        "meta_rev_at_epoch": 51,
        "meta_bstar": 0.0002719745,
        "meta_mean_motion_dot": 0.00014736,
        "meta_mean_motion_ddot": 0,
        "tle_line1": "1 66174U 25241A   25339.25291940  .00014736  00000+0  27197-3 0  9991",
        "tle_line2": "2 66174  51.6297 179.5463 0003585 206.2517 153.8291 15.49328184   515"
      },
      "geometry": {
        "type": "Point",
        "coordinates": [
          -12.06290861011414,
          10.671938002915981
        ]
      }
    },
    {
      "type": "Feature",
      "properties": {
        "norad_id": 66515,
        "name": "SZ-21 MODULE",
        "group": "stations",
        "lat": -16.190657829201786,
        "lon": -102.83407539531167,
        "alt_km": 379.448014291409,
        "timestamp": "2025-12-05T20:43:00.876011+00:00",
        "meta_object_name": "SZ-21 MODULE",
        "meta_object_id": "2025-246C",
        "meta_epoch": "2025-12-05T06:01:59.906784",
        "meta_mean_motion": 15.61952064,
        "meta_eccentricity": 0.00060092,
        "meta_inclination": 41.4774,
        "meta_ra_of_asc_node": 61.708,
        "meta_arg_of_pericenter": 217.7851,
        "meta_mean_anomaly": 142.2567,
        "meta_ephemeris_type": 0,
        "meta_classification_type": "U",
        "meta_norad_cat_id": 66515,
        "meta_element_set_no": 999,
        "meta_rev_at_epoch": 327,
        "meta_bstar": 0.00043191945,
        "meta_mean_motion_dot": 0.00038608,
        "meta_mean_motion_ddot": 0,
        "tle_line1": "1 66515U 25246C   25339.25138781  .00038608  00000+0  43192-3 0  9995",
        "tle_line2": "2 66515  41.4774  61.7080 0006009 217.7851 142.2567 15.61952064  3278"
      },
      "geometry": {
        "type": "Point",
        "coordinates": [
          -102.83407539531167,
          -16.190657829201786
        ]
      }
    },
    {
      "type": "Feature",
      "properties": {
        "norad_id": 66645,
        "name": "SHENZHOU-22",
        "group": "stations",
        "lat": 11.756180793683384,
        "lon": 72.07029167192037,
        "alt_km": 384.16301692027537,
        "timestamp": "2025-12-05T20:43:00.876028+00:00",
        "meta_object_name": "SHENZHOU-22",
        "meta_object_id": "2025-272A",
        "meta_epoch": "2025-12-05T06:48:03.993120",
        "meta_mean_motion": 15.5871605,
        "meta_eccentricity": 0.00098342,
        "meta_inclination": 41.4682,
        "meta_ra_of_asc_node": 61.9587,
        "meta_arg_of_pericenter": 333.0075,
        "meta_mean_anomaly": 27.0251,
        "meta_ephemeris_type": 0,
        "meta_classification_type": "U",
        "meta_norad_cat_id": 66645,
        "meta_element_set_no": 999,
        "meta_rev_at_epoch": 26289,
        "meta_bstar": 0.00043162186,
        "meta_mean_motion_dot": 0.00034071,
        "meta_mean_motion_ddot": 0,
        "tle_line1": "1 66645U 25272A   25339.28337955  .00034071  00000+0  43162-3 0  9992",
        "tle_line2": "2 66645  41.4682  61.9587 0009834 333.0075  27.0251 15.58716050262897"
      },
      "geometry": {
        "type": "Point",
        "coordinates": [
          72.07029167192037,
          11.756180793683384
        ]
      }
    },
    {
      "type": "Feature",
      "properties": {
        "norad_id": 66646,
        "name": "CZ-2F R/B",
        "group": "stations",
        "lat": 15.829019805481519,
        "lon": 72.46558495094519,
        "alt_km": 306.546592671737,
        "timestamp": "2025-12-05T20:43:00.876050+00:00",
        "meta_object_name": "CZ-2F R/B",
        "meta_object_id": "2025-272B",
        "meta_epoch": "2025-11-26T11:17:54.506400",
        "meta_mean_motion": 16.01945612,
        "meta_eccentricity": 0.01210796,
        "meta_inclination": 41.4431,
        "meta_ra_of_asc_node": 114.9009,
        "meta_arg_of_pericenter": 133.7676,
        "meta_mean_anomaly": 227.3272,
        "meta_ephemeris_type": 0,
        "meta_classification_type": "U",
        "meta_norad_cat_id": 66646,
        "meta_element_set_no": 999,
        "meta_rev_at_epoch": 21,
        "meta_bstar": 0.00029319366,
        "meta_mean_motion_dot": 0.00449059,
        "meta_mean_motion_ddot": 7.567612e-06,
        "tle_line1": "1 66646U 25272B   25330.47076975  .00449059  75676-5  29319-3 0  9998",
        "tle_line2": "2 66646  41.4431 114.9009 0121079 133.7676 227.3272 16.01945612   217"
      },
      "geometry": {
        "type": "Point",
        "coordinates": [
          72.46558495094519,
          15.829019805481519
        ]
      }
    },
    {
      "type": "Feature",
      "properties": {
        "norad_id": 66664,
        "name": "SOYUZ-MS 28",
        "group": "stations",
        "lat": 10.6719345948586,
        "lon": -12.062905786177177,
        "alt_km": 416.0787452328441,
        "timestamp": "2025-12-05T20:43:00.876067+00:00",
        "meta_object_name": "SOYUZ-MS 28",
        "meta_object_id": "2025-275A",
        "meta_epoch": "2025-12-05T06:04:12.236160",
        "meta_mean_motion": 15.49328184,
        "meta_eccentricity": 0.00035858,
        "meta_inclination": 51.6297,
        "meta_ra_of_asc_node": 179.5463,
        "meta_arg_of_pericenter": 206.2517,
        "meta_mean_anomaly": 153.8291,
        "meta_ephemeris_type": 0,
        "meta_classification_type": "U",
        "meta_norad_cat_id": 66664,
        "meta_element_set_no": 999,
        "meta_rev_at_epoch": 128,
        "meta_bstar": 0.0002719745,
        "meta_mean_motion_dot": 0.00014736,
        "meta_mean_motion_ddot": 0,
        "tle_line1": "1 66664U 25275A   25339.25291940  .00014736  00000+0  27197-3 0  9992",
        "tle_line2": "2 66664  51.6297 179.5463 0003585 206.2517 153.8291 15.49328184  1284"
      },
      "geometry": {
        "type": "Point",
        "coordinates": [
          -12.062905786177177,
          10.6719345948586
        ]
      }
    },
    {
      "type": "Feature",
      "properties": {
        "norad_id": 66906,
        "name": "1998-067XS",
        "group": "stations",
        "lat": 4.369990529151571,
        "lon": -6.9627025154010616,
        "alt_km": 413.88010559060695,
        "timestamp": "2025-12-05T20:43:00.876084+00:00",
        "meta_object_name": "1998-067XS",
        "meta_object_id": "1998-067XS",
        "meta_epoch": "2025-12-04T20:45:28.746720",
        "meta_mean_motion": 15.49986178,
        "meta_eccentricity": 0.00041746,
        "meta_inclination": 51.6291,
        "meta_ra_of_asc_node": 181.4578,
        "meta_arg_of_pericenter": 168.934,
        "meta_mean_anomaly": 191.1741,
        "meta_ephemeris_type": 0,
        "meta_classification_type": "U",
        "meta_norad_cat_id": 66906,
        "meta_element_set_no": 999,
        "meta_rev_at_epoch": 39,
        "meta_bstar": 0.000624818,
        "meta_mean_motion_dot": 0.00035352,
        "meta_mean_motion_ddot": 0,
        "tle_line1": "1 66906U 98067XS  25338.86491605  .00035352  00000+0  62482-3 0  9999",
        "tle_line2": "2 66906  51.6291 181.4578 0004174 168.9340 191.1741 15.49986178   398"
      },
      "geometry": {
        "type": "Point",
        "coordinates": [
          -6.9627025154010616,
          4.369990529151571
        ]
      }
    }
  ]
}